{
    "links": {
        "self": "http://www.neowsapp.com/rest/v1/neo/54054362?api_key=iIulBulltgU6a56xZRHN4H3l9WmuAYTsLGpBGhQ2"
    },
    "id": "54054362",
    "neo_reference_id": "54054362",
    "name": "(2020 RS7)",
    "designation": "2020 RS7",
    "nasa_jpl_url": "http://ssd.jpl.nasa.gov/sbdb.cgi?sstr=54054362",
    "absolute_magnitude_h": 25.419,
    "estimated_diameter": {
        "kilometers": {
            "estimated_diameter_min": 0.0219156813,
            "estimated_diameter_max": 0.0490049532
        },
        "meters": {
            "estimated_diameter_min": 21.9156813177,
            "estimated_diameter_max": 49.0049531997
        },
        "miles": {
            "estimated_diameter_min": 0.0136177688,
            "estimated_diameter_max": 0.0304502568
        },
        "feet": {
            "estimated_diameter_min": 71.9018438945,
            "estimated_diameter_max": 160.7774106556
        }
    },
    "is_potentially_hazardous_asteroid": false,
    "close_approach_data": [
        {
            "close_approach_date": "2020-09-11",
            "close_approach_date_full": "2020-Sep-11 15:01",
            "epoch_date_close_approach": 1599836460000,
            "relative_velocity": {
                "kilometers_per_second": "8.2362708643",
                "kilometers_per_hour": "29650.5751116526",
                "miles_per_hour": "18423.7142964599"
            },
            "miss_distance": {
                "astronomical": "0.0356695021",
                "lunar": "13.8754363169",
                "kilometers": "5336081.538120527",
                "miles": "3315687.3173241926"
            },
            "orbiting_body": "Earth"
        }
    ],
    "orbital_data": {
        "orbit_id": "4",
        "orbit_determination_date": "2020-09-27 06:54:17",
        "first_observation_date": "2020-09-15",
        "last_observation_date": "2020-09-26",
        "data_arc_in_days": 11,
        "observations_used": 40,
        "orbit_uncertainty": "8",
        "minimum_orbit_intersection": ".0345955",
        "jupiter_tisserand_invariant": "3.854",
        "epoch_osculation": "2459115.5",
        "eccentricity": ".4523986048869233",
        "semi_major_axis": "1.856990747527449",
        "inclination": "8.992615104333897",
        "ascending_node_longitude": "358.0808064127853",
        "orbital_period": "924.3001780029315",
        "perihelion_distance": "1.016890724058106",
        "perihelion_argument": "333.831964962856",
        "aphelion_distance": "2.697090770996791",
        "perihelion_time": "2459088.900893709550",
        "mean_anomaly": "10.3599225581147",
        "mean_motion": ".3894838587804083",
        "equinox": "J2000",
        "orbit_class": {
            "orbit_class_type": "APO",
            "orbit_class_description": "Near-Earth asteroid orbits which cross the Earth’s orbit similar to that of 1862 Apollo",
            "orbit_class_range": "a (semi-major axis) > 1.0 AU; q (perihelion) < 1.017 AU"
        }
    },
    "is_sentry_object": false
}